{
    "type": "FeatureCollection",
    "features": [
        {
            "type": "Feature",
            "properties": {
                "name": "Polaczenie 1"
            },
            "geometry": {
                "type": "LineString",
                "coordinates": [
                    [
                        19.94004660320939,
                        50.06
                    ],
                    [
                        19.940032665152103,
                        50.059901185770755
                    ],
                    [
                        19.940056059595754,
                        50.06
                    ],
                    [
                        19.940092066298035,
                        50.059901185770755
                    ]
                ]
            }
        }
    ]
}